{
  "norad_id": 61778,
  "name": "SITRO-AIS 39",
  "history": [
    {
      "epoch": "2026-03-28T21:08:44.097216",
      "apogee_km": 417.9242497705527,
      "perigee_km": 408.24675770272825,
      "latitude_deg": 24.435053822925596,
      "longitude_deg": 82.38233023998328,
      "semi_major_axis_km": 6791.222503736641,
      "eccentricity": 0.0007125,
      "inclination_deg": 97.3048,
      "raan_deg": 322.0961,
      "arg_perigee_deg": 212.0762,
      "mean_anomaly_deg": 148.0058,
      "mean_motion_rev_day": 15.51246528
    },
    {
      "epoch": "2026-03-29T04:53:10.646016",
      "apogee_km": 417.8309349184956,
      "perigee_km": 408.1101435868104,
      "latitude_deg": 83.9612358830028,
      "longitude_deg": 113.34516223985702,
      "semi_major_axis_km": 6791.107539252653,
      "eccentricity": 0.0007157,
      "inclination_deg": 97.3047,
      "raan_deg": 322.4236,
      "arg_perigee_deg": 210.61,
      "mean_anomaly_deg": 149.4736,
      "mean_motion_rev_day": 15.51285919
    }
  ]
}